NORAD_CAT_ID,OBJECT_NAME,OBJECT_TYPE,EPOCH,MEAN_MOTION,ECCENTRICITY,INCLINATION,RA_OF_ASC_NODE,ARG_OF_PERICENTER,MEAN_ANOMALY,BSTAR,MEAN_MOTION_DOT,MEAN_MOTION_DDOT,TLE_LINE0,TLE_LINE1,TLE_LINE2,SEMIMAJOR_AXIS,PERIOD,APOGEE,PERIGEE,DECAYED
53800.0,STARLINK-4720,PAYLOAD,2022-10-11 06:00:00,15.73185526,0.0001133,53.2156,117.678,94.5971,132.65200000000002,-0.00079629,-0.00110842,0.0,0 STARLINK-4720,1 53800U 22111AD  22284.25001157 -.00110842  00000-0 -79629-3 0  9996,2 53800  53.2156 117.6780 0001133  94.5971 132.6520 15.73185526  4672,6727.936,91.534,350.564,349.039,0.0
53800.0,STARLINK-4720,PAYLOAD,2022-10-11 14:00:01,15.73158775,0.0001398,53.2172,116.0295,100.4487,215.6993,0.00054158,0.00075942,0.0,0 STARLINK-4720,1 53800U 22111AD  22284.58334491  .00075942  00000-0  54158-3 0  9991,2 53800  53.2172 116.0295 0001398 100.4487 215.6993 15.73158775  1305,6728.013000000001,91.536,350.8180000000001,348.93699999999984,0.0
53800.0,STARLINK-4720,PAYLOAD,2022-10-11 22:00:00,15.73132296,0.0001025,53.2144,114.3803,83.6855,321.2879,0.00079388,0.00111965,0.0,0 STARLINK-4720,1 53800U 22111AD  22284.91667824  .00111965  00000-0  79388-3 0  9995,2 53800  53.2144 114.3803 0001025  83.6855 321.2879 15.73132296  4779,6728.0880000000025,91.537,350.64300000000014,349.264,0.0
53800.0,STARLINK-4720,PAYLOAD,2022-10-12 14:00:01,15.73234144,0.0001231999999999,53.2159,111.0797,96.9907,125.8663,0.00022713,0.00031422,0.0,0 STARLINK-4720,1 53800U 22111AD  22285.58334491  .00031422  00000-0  22713-3 0  9999,2 53800  53.2159 111.0797 0001232  96.9907 125.8663 15.73234144  4882,6727.7980000000025,91.531,350.492,348.834,0.0
53800.0,STARLINK-4720,PAYLOAD,2022-10-12 22:00:00,15.73245707,0.000136,53.2171,109.4334,84.5125,227.3305,-0.00047075,-0.00066297,0.0,0 STARLINK-4720,1 53800U 22111AD  22285.91667824 -.00066297  00000-0 -47075-3 0  9993,2 53800  53.2171 109.4334 0001360  84.5125 227.3305 15.73245707  1303,6727.765,91.531,350.545,348.715,0.0
53800.0,STARLINK-4720,PAYLOAD,2022-10-13 14:00:01,15.73203477,0.000113,53.2174,106.1325,91.5724,38.1608,1.1057e-05,9.33e-06,0.0,0 STARLINK-4720,1 53800U 22111AD  22286.58334491  .00000933  00000-0  11057-4 0  9993,2 53800  53.2174 106.1325 0001130  91.5724  38.1608 15.73203477  1300,6727.885,91.533,350.511,348.99,0.0
53800.0,STARLINK-4720,PAYLOAD,2022-10-13 20:00:01,15.73205617,0.0001192,53.2175,104.8972,86.7663,19.7311,-1.4169e-05,-2.608e-05,0.0,0 STARLINK-4720,1 53800U 22111AD  22286.83335648 -.00002608  00000-0 -14169-4 0  9996,2 53800  53.2175 104.8972 0001192  86.7663  19.7311 15.73205617  5072,6727.879,91.533,350.546,348.94199999999995,0.0
53800.0,STARLINK-4720,PAYLOAD,2022-10-13 22:00:00,15.73201552,0.0001137,53.2175,104.485,86.0973,132.5696,3.9328e-05,4.903e-05,0.0,0 STARLINK-4720,1 53800U 22111AD  22286.91667824  .00004903  00000-0  39328-4 0  9991,2 53800  53.2175 104.4850 0001137  86.0973 132.5696 15.73201552  1305,6727.891,91.533,350.521,348.991,0.0
53800.0,STARLINK-4720,PAYLOAD,2022-10-14 14:00:01,15.73213599,0.0001512,53.2169,101.1837,87.7625,308.7692,-0.00011195,-0.00016311,0.0,0 STARLINK-4720,1 53800U 22111AD  22287.58334491 -.00016311  00000-0 -11195-3 0  9995,2 53800  53.2169 101.1837 0001512  87.7625 308.7692 15.73213599  1303,6727.856,91.532,350.73900000000015,348.704,0.0
53800.0,STARLINK-4720,PAYLOAD,2022-10-14 20:00:01,15.73205764,0.0001569,53.2174,99.9486,83.1837,290.051,-1.9809e-05,-3.4e-05,0.0,0 STARLINK-4720,1 53800U 22111AD  22287.83334491 -.00003400  00000-0 -19809-4 0  9999,2 53800  53.2174  99.9486 0001569  83.1837 290.0510 15.73205764  1307,6727.879,91.533,350.7990000000001,348.68800000000016,0.0
53800.0,STARLINK-4720,PAYLOAD,2022-10-15 06:00:00,15.73230986,6.759999999999999e-05,53.2174,97.8847,74.8708,139.5204,-0.00030194,-0.00042833,0.0,0 STARLINK-4720,1 53800U 22111AD  22288.25001157 -.00042833  00000-0 -30194-3 0  9998,2 53800  53.2174  97.8847 0000676  74.8708 139.5204 15.73230986  5302,6727.807,91.531,350.12699999999984,349.217,0.0
53800.0,STARLINK-4720,PAYLOAD,2022-10-15 14:00:01,15.73230578,0.0001158,53.2151,96.2335,68.7421,234.6707,-4.7856e-05,-7.339e-05,0.0,0 STARLINK-4720,1 53800U 22111AD  22288.58334491 -.00007339  00000-0 -47856-4 0  9990,2 53800  53.2151  96.2335 0001158  68.7421 234.6707 15.73230578  1300,6727.808000000001,91.531,350.452,348.894,0.0
53800.0,STARLINK-4720,PAYLOAD,2022-10-15 22:00:01,15.73203375,0.0001242,53.2146,94.5855,55.1381,337.3121,1.292e-05,1.194e-05,0.0,0 STARLINK-4720,1 53800U 22111AD  22288.91668981  .00001194  00000-0  12920-4 0  9996,2 53800  53.2146  94.5855 0001242  55.1381 337.3121 15.73203375  1307,6727.886,91.533,350.586,348.915,0.0
53800.0,STARLINK-4720,PAYLOAD,2022-10-16 06:00:00,15.73193667,0.0001048,53.2145,92.9341,62.0481,59.2631,7.3329e-06,4.09e-06,0.0,0 STARLINK-4720,1 53800U 22111AD  22289.25001157  .00000409  00000-0  73329-5 0  9999,2 53800  53.2145  92.9341 0001048  62.0481  59.2631 15.73193667  5458,6727.913000000001,91.534,350.483,349.0730000000001,0.0
53800.0,STARLINK-4720,PAYLOAD,2022-10-16 14:00:01,15.7321873,0.0001139,53.2149,91.2851,60.3608,149.8697,-0.00034301,-0.0004852,0.0,0 STARLINK-4720,1 53800U 22111AD  22289.58334491 -.00048520  00000-0 -34301-3 0  9998,2 53800  53.2149  91.2851 0001139  60.3608 149.8697 15.73218730  1300,6727.842,91.532,350.473,348.94,0.0
53800.0,STARLINK-4720,PAYLOAD,2022-10-16 22:00:00,15.73178627,0.0001385999999999,53.2155,89.6382,48.0816,251.0768,0.00060864,0.00085595,0.0,0 STARLINK-4720,1 53800U 22111AD  22289.91667824  .00085595  00000-0  60864-3 0  9998,2 53800  53.2155  89.6382 0001386  48.0816 251.0768 15.73178627  1300,6727.956,91.534,350.754,348.889,0.0
53800.0,STARLINK-4720,PAYLOAD,2022-10-17 06:00:00,15.73145121,0.0001338,53.2158,87.9858,62.0235,326.0062,0.0005348,0.00074931,0.0,0 STARLINK-4720,1 53800U 22111AD  22290.25001157  .00074931  00000-0  53480-3 0  9996,2 53800  53.2158  87.9858 0001338  62.0235 326.0062 15.73145121  5611,6728.052,91.536,350.81699999999995,349.016,0.0
53800.0,STARLINK-4720,PAYLOAD,2022-10-17 14:00:01,15.73263398,0.0001412,53.2157,86.3371,56.3579,60.5918,-0.00037789,-0.00053463,0.0,0 STARLINK-4720,1 53800U 22111AD  22290.58334491 -.00053463  00000-0 -37789-3 0  9995,2 53800  53.2157  86.3371 0001412  56.3579  60.5918 15.73263398  5665,6727.714,91.529,350.529,348.629,0.0
53800.0,STARLINK-4720,PAYLOAD,2022-10-17 22:00:00,15.73198889,0.0001389,53.2144,84.6885,42.896,162.9949,2.7273e-05,3.209e-05,0.0,0 STARLINK-4720,1 53800U 22111AD  22290.91667824  .00003209  00000-0  27273-4 0  9990,2 53800  53.2144  84.6885 0001389  42.8960 162.9949 15.73198889  5729,6727.898,91.533,350.6980000000001,348.829,0.0
53800.0,STARLINK-4720,PAYLOAD,2022-10-18 14:00:01,15.73178043,0.0001388,53.2147,81.3883,48.7886,334.9517,0.00019058,0.00026185,0.0,0 STARLINK-4720,1 53800U 22111AD  22291.58334491  .00026185  00000-0  19058-3 0  9994,2 53800  53.2147  81.3883 0001388  48.7886 334.9517 15.73178043  1307,6727.958000000001,91.534,350.75699999999995,348.889,0.0
53800.0,STARLINK-4720,PAYLOAD,2022-10-18 22:00:00,15.7320327,0.0001440999999999,53.2172,79.7415,54.5784,58.102,1.8972e-05,2.043e-05,0.0,0 STARLINK-4720,1 53800U 22111AD  22291.91667824  .00002043  00000-0  18972-4 0  9992,2 53800  53.2172  79.7415 0001441  54.5784  58.1020 15.73203270  1304,6727.886,91.533,350.72,348.781,0.0
53800.0,STARLINK-4720,PAYLOAD,2022-10-19 08:00:01,15.73205515,0.000155,53.2148,77.6754,50.29,263.5493,0.00010021,0.00013469,0.0,0 STARLINK-4720,1 53800U 22111AD  22292.33334491  .00013469  00000-0  10021-3 0  9990,2 53800  53.2148  77.6754 0001550  50.2900 263.5493 15.73205515  5948,6727.879,91.533,350.787,348.702,0.0
53800.0,STARLINK-4720,PAYLOAD,2022-10-19 14:00:01,15.73204467,0.0001633,53.2148,76.4396,44.7469,245.8064,8.9879e-05,0.00012014,0.0,0 STARLINK-4720,1 53800U 22111AD  22292.58334491  .00012014  00000-0  89879-4 0  9990,2 53800  53.2148  76.4396 0001633  44.7469 245.8064 15.73204467  1305,6727.882,91.533,350.846,348.649,0.0
53800.0,STARLINK-4720,PAYLOAD,2022-10-19 22:00:00,15.73296589,0.0001588999999999,53.2159,74.7924,36.4322,343.0573,-0.0014592,-0.00201424,0.0,0 STARLINK-4720,1 53800U 22111AD  22292.91667824 -.00201424  00000-0 -14592-2 0  9991,2 53800  53.2159  74.7924 0001589  36.4322 343.0573 15.73296589  1303,6727.62,91.528,350.55400000000014,348.416,0.0
53800.0,STARLINK-4720,PAYLOAD,2022-10-20 14:00:01,15.732301,0.0001597,53.2146,71.4908,36.0529,161.3577,-0.00044246,-0.0006234,0.0,0 STARLINK-4720,1 53800U 22111AD  22293.58334491 -.00062340  00000-0 -44246-3 0  9998,2 53800  53.2146  71.4908 0001597  36.0529 161.3577 15.73230100  1301,6727.809,91.531,350.749,348.6,0.0
53800.0,STARLINK-4720,PAYLOAD,2022-10-20 22:00:00,15.73205296,0.0001730999999999,53.2153,69.8431,27.34800000000001,258.9929,0.00010446,0.00014068,0.0,0 STARLINK-4720,1 53800U 22111AD  22293.91667824  .00014068  00000-0  10446-3 0  9991,2 53800  53.2153  69.8431 0001731  27.3480 258.9929 15.73205296  1302,6727.88,91.533,350.91,348.58,0.0
53800.0,STARLINK-4720,PAYLOAD,2022-10-21 06:00:00,15.73245859,0.0001647,53.2154,68.1904,36.36,338.8663,-0.00092146,-0.00128246,0.0,0 STARLINK-4720,1 53800U 22111AD  22294.25001157 -.00128246  00000-0 -92146-3 0  9993,2 53800  53.2154  68.1904 0001647  36.3600 338.8663 15.73245859  6240,6727.764,91.531,350.737,348.521,0.0
53800.0,STARLINK-4720,PAYLOAD,2022-10-21 14:00:01,15.73135654,0.000193,53.2158,66.5427,38.7979,65.3755,0.0010674,0.00151498,0.0,0 STARLINK-4720,1 53800U 22111AD  22294.58334491  .00151498  00000-0  10674-2 0  9997,2 53800  53.2158  66.5427 0001930  38.7979  65.3755 15.73135654  6296,6728.079000000002,91.537,351.242,348.645,0.0
53800.0,STARLINK-4720,PAYLOAD,2022-10-21 22:00:00,15.73266798,0.0001982,53.2144,64.8927,31.3602,161.7222,-0.00074259,-0.00103867,0.0,0 STARLINK-4720,1 53800U 22111AD  22294.91667824 -.00103867  00000-0 -74259-3 0  9992,2 53800  53.2144  64.8927 0001982  31.3602 161.7222 15.73266798  6357,6727.705,91.529,350.903,348.236,0.0
